{"fetched_at":"2026-03-29T16:36:15Z","count":15609,"tles":[{"name":"STARLINK-3591","line1":"1 51870U 22022U   26087.83506820  .00001388  00000+0  10530-3 0  9995","line2":"2 51870  53.2172 283.1760 0000884 110.4125 249.6962 15.08838994226052","category":"Starlink"}]}